TIANMU-1 08             
1 57400U 23101B   26066.00237819  .00000346  00000+0  14775-4 0  9993
2 57400  97.2717 118.7901 0006380 134.2174 225.9592 15.29204229146020
STARLINK-35311          
1 66032U 25232AD  26068.81782282  .00017724  00000+0  60910-3 0  9990
2 66032  53.1599 103.4047 0001790  89.3413 270.7793 15.30200109 23455
